sat26126
1 26126U 99057N   20046.90144060  .00000111  00000-0  49298-4 0  9992
2 26126  98.6870  24.8957 0104106 231.2474 156.9664 14.38269084 42667
